{
    "links": {
        "self": "http://www.neowsapp.com/rest/v1/neo/3989231?api_key=iIulBulltgU6a56xZRHN4H3l9WmuAYTsLGpBGhQ2"
    },
    "id": "3989231",
    "neo_reference_id": "3989231",
    "name": "(2020 BY9)",
    "designation": "2020 BY9",
    "nasa_jpl_url": "http://ssd.jpl.nasa.gov/sbdb.cgi?sstr=3989231",
    "absolute_magnitude_h": 24.817,
    "estimated_diameter": {
        "kilometers": {
            "estimated_diameter_min": 0.028917116,
            "estimated_diameter_max": 0.064660637
        },
        "meters": {
            "estimated_diameter_min": 28.9171159637,
            "estimated_diameter_max": 64.6606370081
        },
        "miles": {
            "estimated_diameter_min": 0.0179682573,
            "estimated_diameter_max": 0.0401782447
        },
        "feet": {
            "estimated_diameter_min": 94.8724307384,
            "estimated_diameter_max": 212.1412043218
        }
    },
    "is_potentially_hazardous_asteroid": false,
    "close_approach_data": [
        {
            "close_approach_date": "2020-01-27",
            "close_approach_date_full": "2020-Jan-27 06:16",
            "epoch_date_close_approach": 1580105760000,
            "relative_velocity": {
                "kilometers_per_second": "5.5882007351",
                "kilometers_per_hour": "20117.5226462868",
                "miles_per_hour": "12500.2462242997"
            },
            "miss_distance": {
                "astronomical": "0.1268149836",
                "lunar": "49.3310286204",
                "kilometers": "18971251.430644932",
                "miles": "11788189.0134147816"
            },
            "orbiting_body": "Earth"
        }
    ],
    "orbital_data": {
        "orbit_id": "5",
        "orbit_determination_date": "2020-02-27 10:08:33",
        "first_observation_date": "2020-01-25",
        "last_observation_date": "2020-02-27",
        "data_arc_in_days": 33,
        "observations_used": 36,
        "orbit_uncertainty": "7",
        "minimum_orbit_intersection": ".126151",
        "jupiter_tisserand_invariant": "3.362",
        "epoch_osculation": "2459000.5",
        "eccentricity": ".5248278765376463",
        "semi_major_axis": "2.337154505696512",
        "inclination": "5.410714247772182",
        "ascending_node_longitude": "126.9507664274186",
        "orbital_period": "1305.057247160904",
        "perihelion_distance": "1.110550669331419",
        "perihelion_argument": "357.2700690391153",
        "aphelion_distance": "3.563758342061604",
        "perihelion_time": "2458874.339755786628",
        "mean_anomaly": "34.80129934193929",
        "mean_motion": ".2758499681015253",
        "equinox": "J2000",
        "orbit_class": {
            "orbit_class_type": "AMO",
            "orbit_class_description": "Near-Earth asteroid orbits similar to that of 1221 Amor",
            "orbit_class_range": "1.017 AU < q (perihelion) < 1.3 AU"
        }
    },
    "is_sentry_object": false
}